0 ARIANE 1 DEB
1 17118U 86019N   13284.03733288  .00001609  00000-0  75990-3 0   220
2 17118 098.9012 305.4894 0149243 033.3649 019.1697 14.15465571377114
0 ARIANE 1 DEB
1 17118U 86019N   13286.53099538  .00001361  00000-0  64629-3 0   233
2 17118 098.9007 307.9799 0149108 026.2770 126.0833 14.15473428377463
0 ARIANE 1 DEB
1 17118U 86019N   13288.64407797  .00002165  00000-0  10159-2 0   249
2 17118 098.9002 310.0903 0148964 020.2355 093.7835 14.15482892377762
0 ARIANE 1 DEB
1 17118U 86019N   13291.03078372  .00001806  00000-0  85070-3 0   256
2 17118 098.9000 312.4738 0148823 013.4436 015.8435 14.15492074378103
0 ARIANE 1 DEB
1 17118U 86019N   13293.52911977  .00001867  00000-0  87890-3 0   269
2 17118 098.9000 314.9683 0148700 006.2928 146.8605 14.15501054378450
0 ARIANE 1 DEB
1 17118U 86019N   13296.04767834  .00002048  00000-0  96211-3 0   270
2 17118 098.8999 317.4833 0148587 359.0908 021.0118 14.15510542378816
